satname,norad_id,inclination_deg,eccentricity,mean_motion_rev_per_day,perigee_km,apogee_km,l1,l2
STARLINK-1316,45415,53.1529,0.0001377,15.42226735,438.60017700034314,440.4777649627513,1 45415U 20019BH  26195.47873294  .00023968  00000+0  55725-3 0  9992,2 45415  53.1529 254.9792 0001377 322.3739  37.7170 15.42226735349481
STARLINK-1286,45417,53.042,0.0006642,15.68399952,359.0004347112472,367.95599636356565,1 45417U 20019BK  26195.49290426  .00039462  00000+0  34684-3 0  9993,2 45417  53.0420 234.1423 0006642  18.4093 341.7162 15.68399952350008
STARLINK-1308,45419,53.0435,0.000346,15.69370056,358.36807811435574,363.03135312156337,1 45419U 20019BM  26195.48745282  .00033277  00000+0  28227-3 0  9993,2 45419  53.0435 253.2115 0003460 123.0356 237.0993 15.69370056349480
STARLINK-1329,45531,53.0383,0.000361,15.78452652,332.4007933598432,337.24755132627433,1 45531U 20025A   26195.22347658  .00059593  00000+0  33845-3 0  9993,2 45531  53.0383 176.0023 0003610  29.6446 330.4778 15.78452652345326
STARLINK-1338,45532,53.0395,0.0003009,15.75138056,342.2155929740993,346.26111846317053,1 45532U 20025B   26195.40158781  .00047528  00000+0  31376-3 0  9993,2 45532  53.0395 182.8112 0003009  71.2881 288.8464 15.75138056345247
STARLINK-1350,45535,53.0691,0.0002036,15.40227757,444.04727721846484,446.8258363707919,1 45535U 20025E   26195.26924613  .00029866  00000+0  73876-3 0  9991,2 45535  53.0691 157.2082 0002036  74.8576 285.2653 15.40227757345633
STARLINK-1362,45538,53.1536,0.0005413,15.40548783,440.79548677680395,448.1816612232169,1 45538U 20025H   26195.55718412  .00006580  00000+0  16919-3 0  9997,2 45538  53.1536 227.3842 0005413 349.0298  11.0588 15.40548783344667
STARLINK-1368,45540,53.1536,0.0004168,15.40814738,440.8601208947912,446.54680710558205,1 45540U 20025K   26195.56616213  .00026995  00000+0  65608-3 0  9998,2 45540  53.1536 227.6606 0004168 348.9417  11.1496 15.40814738344652
STARLINK-1371,45542,53.0395,0.0002549,15.72040819,351.3492976492007,354.7808644701254,1 45542U 20025M   26195.39488194  .00041709  00000+0  31514-3 0  9995,2 45542  53.0395 193.5065 0002549  60.7098 299.4174 15.72040819345090
STARLINK-1372,45543,53.1536,0.0004385,15.41262777,439.39054793089963,445.3721425196618,1 45543U 20025N   26195.57901699  .00028006  00000+0  67019-3 0  9990,2 45543  53.1536 226.9817 0004385 341.9922  18.0927 15.41262777343763
STARLINK-1373,45544,53.0403,0.0003233,15.73812793,345.83707651066743,350.186204221528,1 45544U 20025P   26195.35889494  .00044094  00000+0  30864-3 0  9998,2 45544  53.0403 188.2972 0003233  65.9973 294.1383 15.73812793345161
STARLINK-1327,45555,53.0371,0.0002348,15.75837849,340.67009477646934,343.8259875918093,1 45555U 20025AA  26195.33267300  .00033786  00000+0  21790-3 0  9998,2 45555  53.0371 165.5154 0002348 108.3919 251.7356 15.75837849345479
STARLINK-1356,45564,53.0389,0.0004147,15.68351952,360.81996307183636,366.41157281757023,1 45564U 20025AK  26195.41466445  .00036759  00000+0  32437-3 0  9991,2 45564  53.0389 179.7018 0004147  52.7133 307.4260 15.68351952345283
STARLINK-1357,45565,53.0423,0.0001145,15.73749913,347.4206391615535,348.9609682285991,1 45565U 20025AL  26195.20720560  .00048206  00000+0  33782-3 0  9994,2 45565  53.0423 136.1647 0001145 214.0392 146.0553 15.73749913345885
STARLINK-1361,45567,53.0386,0.0002664,15.72157483,350.938974988896,354.5251820339281,1 45567U 20025AN  26195.81349152  .00040254  00000+0  30287-3 0  9999,2 45567  53.0386 175.5369 0002664  82.5381 277.5939 15.72157483345383
STARLINK-1376,45570,53.1537,0.0002886,15.41733649,439.02453792045344,442.9605394901937,1 45570U 20025AR  26195.41637067  .00032921  00000+0  77355-3 0  9993,2 45570  53.1537 204.0407 0002886   5.6343 354.4695 15.41733649344975
STARLINK-1320,45572,53.0333,0.0002465,16.03213741,263.88775973773863,267.1630853120432,1 45572U 20025AT  26195.80791647  .00302423  51424-4  48177-3 0  9991,2 45572  53.0333  66.1191 0002465 173.7891 186.3170 16.03213741346927
STARLINK-1321,45573,53.0395,0.0001636,15.72661845,350.1919803691071,352.39384983733,1 45573U 20025AU  26195.17512937  .00042897  00000+0  31558-3 0  9995,2 45573  53.0395 162.4583 0001636 101.2220 258.8982 15.72661845345205
STARLINK-1331,45578,53.0434,0.0002034,15.72404577,350.6580007503553,353.39583143142136,1 45578U 20025AZ  26195.83941669  .00041193  00000+0  30660-3 0  9992,2 45578  53.0434 166.1450 0002034  78.9243 281.2003 15.72404577345522
STARLINK-1333,45580,53.1536,0.000461,15.38719224,446.7479122347804,453.0433583245094,1 45580U 20025BB  26195.47152880  .00022703  00000+0  59288-3 0  9997,2 45580  53.1536 206.0886 0004610   4.9997 355.1052 15.38719224344954
STARLINK-1335,45581,53.1511,0.0003688,15.40253164,442.845012223057,447.87802473028387,1 45581U 20025BC  26195.39621299  .00032459  00000+0  80106-3 0  9996,2 45581  53.1511 202.7175 0003688 339.2381  20.8474 15.40253164344983
STARLINK-1337,45582,53.041,0.0001701,15.80184451,328.7775343236053,331.0596148300765,1 45582U 20025BD  26195.81950814  .00065055  00000+0  34119-3 0  9993,2 45582  53.0410 153.2967 0001701 115.2737 244.8461 15.80184451345689
STARLINK-1347,45586,53.0354,0.0001601,15.72691364,350.13134018146593,352.28607667730466,1 45586U 20025BH  26195.52186956  .00044592  00000+0  32739-3 0  9992,2 45586  53.0354 127.0501 0001601  80.5485 279.5714 15.72691364346028
STARLINK-1364,45589,53.0394,0.0004534,15.73406125,346.1204049880225,352.22072748908886,1 45589U 20025BL  26195.38431986  .00047259  00000+0  33607-3 0  9993,2 45589  53.0394 164.2408 0004534  53.8276 306.3161 15.73406125345498
STARLINK-1365,45590,53.0417,0.0002765,15.68495312,361.34098451566206,365.0689466226213,1 45590U 20025BM  26195.27231557  .00033271  00000+0  29254-3 0  9997,2 45590  53.0417 200.6522 0002765  49.3866 310.7390 15.68495312344994
STARLINK-1443,45660,53.131,0.0002515,15.35294843,458.32506738962184,461.76467287029755,1 45660U 20035D   26195.27785375  .00026855  00000+0  78058-3 0  9994,2 45660  53.1310 196.3926 0002515  53.5104 306.6131 15.35294843338146
STARLINK-1446,45663,53.0212,0.0002377,15.49770078,415.7828056421431,419.0134030307445,1 45663U 20035G   26195.50676305  .00020372  00000+0  36736-3 0  9990,2 45663  53.0212 114.0005 0002377  31.2911 328.8238 15.49770078339294
STARLINK-1448,45665,53.0395,0.0002117,15.77455366,336.23148398535704,339.07494956313894,1 45665U 20035J   26195.87293907  .00059694  00000+0  35451-3 0  9997,2 45665  53.0395 148.6313 0002117 103.2979 256.8277 15.77455366338832
STARLINK-1451,45668,53.0483,0.0002165,15.15823159,516.9875329985789,519.9737684413403,1 45668U 20035M   26195.30798978  .00011567  00000+0  61310-3 0  9996,2 45668  53.0483 211.7514 0002165  10.8074 349.2965 15.15823159337910
STARLINK-1452,45669,53.0215,0.0006974,15.64898193,368.82295709071514,378.24018441320004,1 45669U 20035N   26195.25339977  .00031607  00000+0  32117-3 0  9991,2 45669  53.0215 129.7526 0006974  72.8839 287.2938 15.64898193339056
STARLINK-1453,45670,53.0361,0.000182,15.78353339,333.8839540803192,336.32757444650997,1 45670U 20035P   26195.82806902  .00068841  00000+0  39180-3 0  9990,2 45670  53.0361 108.9800 0001820 173.7381 186.3662 15.78353339339283
STARLINK-1454,45671,53.0397,0.0001617,15.75772113,341.34822489063026,343.5216578564714,1 45671U 20035Q   26195.15397846  .00057607  00000+0  36869-3 0  9998,2 45671  53.0397 153.8780 0001617  80.4615 279.6587 15.75772113338695
STARLINK-1456,45673,53.039,0.0001638,15.72059769,351.9084258529774,354.11354993381065,1 45673U 20035S   26195.24431364  .00043829  00000+0  33061-3 0  9996,2 45673  53.0390 148.6870 0001638  88.7496 271.3709 15.72059769338791
STARLINK-1458,45675,53.0418,0.0004693,15.63825323,373.4492208015281,379.7892349970343,1 45675U 20035U   26195.34305972  .00086196  00000+0  89836-3 0  9999,2 45675  53.0418 165.1414 0004693  64.5303 295.6196 15.63825323338533
STARLINK-1460,45676,53.1543,0.0004794,15.38376781,447.6350341115967,454.1827233000995,1 45676U 20035V   26195.32177014  .00027081  00000+0  71271-3 0  9994,2 45676  53.1543 194.0315 0004794  25.0415 335.0821 15.38376781338145
STARLINK-1392,45677,53.1502,0.0005163,15.41924451,436.9095556593811,443.95040792477994,1 45677U 20035W   26195.38835679  .00034017  00000+0  79361-3 0  9994,2 45677  53.1502 191.4460 0005163  16.2432 343.8738 15.41924451338225
STARLINK-1394,45679,53.0378,0.000153,15.70502464,356.42942907310953,358.49052174758526,1 45679U 20035Y   26195.26997404  .00041233  00000+0  33237-3 0  9998,2 45679  53.0378 139.0969 0001530 104.4450 255.6737 15.70502464338927
STARLINK-1402,45685,53.0389,0.000115,15.67659642,364.8249544019891,366.37601402335804,1 45685U 20035AE  26195.54587525  .00032542  00000+0  29618-3 0  9996,2 45685  53.0389 130.1831 0001150 123.9215 236.1910 15.67659642339081
STARLINK-1404,45686,53.1533,0.000491,15.47961248,419.3516983326026,426.03011133514883,1 45686U 20035AF  26195.36547622  .00047485  00000+0  89761-3 0  9998,2 45686  53.1533 171.5990 0004910   9.1826 350.9272 15.47961248338507
STARLINK-1413,45689,53.1532,0.0005011,15.38139577,448.188567591651,455.03334099144104,1 45689U 20035AJ  26195.42877343  .00032775  00000+0  86639-3 0  9991,2 45689  53.1532 178.2093 0005011  22.3983 337.7239 15.38139577338330
STARLINK-1417,45693,53.0462,0.0002699,15.18450885,508.66256566777247,512.381063695937,1 45693U 20035AN  26195.27839482  .00015409  00000+0  75258-3 0  9991,2 45693  53.0462 197.8744 0002699 312.9987  47.0781 15.18450885338099
STARLINK-1420,45695,53.0424,0.0001278,15.74881878,344.1081195569477,345.8265450242816,1 45695U 20035AQ  26195.51775910  .00045042  00000+0  30102-3 0  9990,2 45695  53.0424 120.0992 0001278 155.5673 204.5406 15.74881878339218
STARLINK-1422,45696,53.1537,0.0001963,15.39981931,444.82308825736527,447.5023083189144,1 45696U 20035AR  26195.34158808  .00030914  00000+0  77048-3 0  9995,2 45696  53.1537 178.2891 0001963  78.7175 281.4051 15.39981931338404
